[{"OBJECT_NAME":"IRIDIUM 130","OBJECT_ID":"2017-083D","EPOCH":"2026-03-09T21:39:51.158880","MEAN_MOTION":14.3421742,"ECCENTRICITY":0.00018247,"INCLINATION":86.4028,"RA_OF_ASC_NODE":3.7574,"ARG_OF_PERICENTER":90.7485,"MEAN_ANOMALY":269.392,"EPHEMERIS_TYPE":0,"CLASSIFICATION_TYPE":"U","NORAD_CAT_ID":43073,"ELEMENT_SET_NO":999,"REV_AT_EPOCH":42988,"BSTAR":-6.674968e-6,"MEAN_MOTION_DOT":1.0e-8,"MEAN_MOTION_DDOT":0},{"OBJECT_NAME":"ARIANE 1 DEB","OBJECT_ID":"1986-019R","EPOCH":"2026-03-09T23:47:15.410112","MEAN_MOTION":14.35604694,"ECCENTRICITY":0.00542639,"INCLINATION":98.2915,"RA_OF_ASC_NODE":63.6748,"ARG_OF_PERICENTER":5.1287,"MEAN_ANOMALY":58.289,"EPHEMERIS_TYPE":0,"CLASSIFICATION_TYPE":"U","NORAD_CAT_ID":17121,"ELEMENT_SET_NO":999,"REV_AT_EPOCH":4340,"BSTAR":0.00059995178,"MEAN_MOTION_DOT":1.717e-5,"MEAN_MOTION_DDOT":0}]
